{"fetched_at":"2026-07-21T07:06:48.422Z","source":"https://celestrak.org/NORAD/elements/gp.php?NAME=FIREFLY&FORMAT=JSON","constellation":"pixxel","records":[{"OBJECT_NAME":"FIREFLY-1","OBJECT_ID":"2025-009CW","EPOCH":"2026-07-20T21:04:10.600608","CLASSIFICATION_TYPE":"U","MEAN_MOTION":14.92748114,"ECCENTRICITY":0.0003061,"INCLINATION":97.7057,"RA_OF_ASC_NODE":279.308,"ARG_OF_PERICENTER":199.0643,"MEAN_ANOMALY":161.0462,"EPHEMERIS_TYPE":0,"NORAD_CAT_ID":62701,"ELEMENT_SET_NO":999,"REV_AT_EPOCH":8234,"BSTAR":0.000066990302,"MEAN_MOTION_DOT":0.00000636,"MEAN_MOTION_DDOT":0},{"OBJECT_NAME":"FIREFLY-2","OBJECT_ID":"2025-009CZ","EPOCH":"2026-07-20T22:08:54.427488","CLASSIFICATION_TYPE":"U","MEAN_MOTION":14.92742874,"ECCENTRICITY":0.00058981,"INCLINATION":97.7014,"RA_OF_ASC_NODE":279.1185,"ARG_OF_PERICENTER":343.2628,"MEAN_ANOMALY":16.8396,"EPHEMERIS_TYPE":0,"NORAD_CAT_ID":62704,"ELEMENT_SET_NO":999,"REV_AT_EPOCH":8235,"BSTAR":0.00004709041,"MEAN_MOTION_DOT":0.00000431,"MEAN_MOTION_DDOT":0},{"OBJECT_NAME":"FIREFLY-3","OBJECT_ID":"2025-009DF","EPOCH":"2026-07-20T21:37:02.776512","CLASSIFICATION_TYPE":"U","MEAN_MOTION":14.92807997,"ECCENTRICITY":0.00044998,"INCLINATION":97.7047,"RA_OF_ASC_NODE":279.3598,"ARG_OF_PERICENTER":60.1139,"MEAN_ANOMALY":300.0527,"EPHEMERIS_TYPE":0,"NORAD_CAT_ID":62710,"ELEMENT_SET_NO":999,"REV_AT_EPOCH":8236,"BSTAR":0.000087974997,"MEAN_MOTION_DOT":0.00000854,"MEAN_MOTION_DDOT":0}]}
