FIREFLY-1               
1 62701U 25009CW  26201.87790047  .00000636  00000+0  66990-4 0  9993
2 62701  97.7057 279.3080 0003061 199.0643 161.0462 14.92748114 82342
FIREFLY-2               
1 62704U 25009CZ  26201.92285217  .00000431  00000+0  47090-4 0  9993
2 62704  97.7014 279.1185 0005898 343.2628  16.8396 14.92742874 82359
FIREFLY-3               
1 62710U 25009DF  26201.90072658  .00000854  00000+0  87975-4 0  9996
2 62710  97.7047 279.3598 0004499  60.1139 300.0527 14.92807997 82363
